IRIDIUM 119             
1 42959U 17061E   25105.79452259  .00000056  00000+0  12833-4 0  9991
2 42959  86.4035 203.8187 0002018  92.4794 267.6632 14.34217722393552
IRIDIUM 107             
1 42960U 17061F   25105.88331833  .00000215  00000+0  69686-4 0  9992
2 42960  86.4032 203.8004 0001662 102.1360 258.0022 14.34217913393572
IRIDIUM 132             
1 42961U 17061G   25105.81989255  .00000038  00000+0  64162-5 0  9991
2 42961  86.4036 203.8096 0002009  98.2326 261.9098 14.34217938393563
IRIDIUM 136             
1 42962U 17061H   25105.78183958  .00000637  00000+0  22044-3 0  9990
2 42962  86.4034 203.8300 0001963  92.1378 268.0043 14.34220528393576
IRIDIUM 139             
1 42963U 17061J   25105.78817976  .00000220  00000+0  71548-4 0  9997
2 42963  86.4036 203.8821 0001978  98.4770 261.6650 14.34218333393583
IRIDIUM 125             
1 42964U 17061K   25105.77549214  .00000398  00000+0  13489-3 0  9999
2 42964  86.4040 203.9409 0001785  85.7090 274.4310 14.34219847393599
IRIDIUM 135             
1 43070U 17083A   25105.81938729  .00000248  00000+0  81447-4 0  9994
2 43070  86.3964 140.6898 0002505  95.1823 264.9659 14.34216898382895
IRIDIUM 138             
1 43071U 17083B   25105.84475956  .00000372  00000+0  12570-3 0  9994
2 43071  86.3954 140.3583 0002345  79.5667 280.5793 14.34218408382888
